LEMUR-2-AMANDA-SVANTE   
1 48269U 21034B   26068.77637527  .00030872  00000+0  11134-2 0  9996
2 48269  97.5829 144.8625 0002703 205.4721 154.6385 15.28469003265849
STARLINK-35777          
1 66975U 25288S   26068.30416733  .00031837  00000+0  11605-2 0  9993
2 66975  43.0009  26.0425 0001264 270.6434  89.4272 15.27607847 15228
