[{"OBJECT_NAME":"LEMUR-2-AMANDA-SVANTE","OBJECT_ID":"2021-034B","EPOCH":"2026-03-09T18:37:58.823328","MEAN_MOTION":15.28469003,"ECCENTRICITY":0.00027027,"INCLINATION":97.5829,"RA_OF_ASC_NODE":144.8625,"ARG_OF_PERICENTER":205.4721,"MEAN_ANOMALY":154.6385,"EPHEMERIS_TYPE":0,"CLASSIFICATION_TYPE":"U","NORAD_CAT_ID":48269,"ELEMENT_SET_NO":999,"REV_AT_EPOCH":26584,"BSTAR":0.0011134246,"MEAN_MOTION_DOT":0.00030872,"MEAN_MOTION_DDOT":0},{"OBJECT_NAME":"STARLINK-35777","OBJECT_ID":"2025-288S","EPOCH":"2026-03-09T07:18:00.057312","MEAN_MOTION":15.27607847,"ECCENTRICITY":0.00012648,"INCLINATION":43.0009,"RA_OF_ASC_NODE":26.0425,"ARG_OF_PERICENTER":270.6434,"MEAN_ANOMALY":89.4272,"EPHEMERIS_TYPE":0,"CLASSIFICATION_TYPE":"U","NORAD_CAT_ID":66975,"ELEMENT_SET_NO":999,"REV_AT_EPOCH":1522,"BSTAR":0.0011604901,"MEAN_MOTION_DOT":0.00031837,"MEAN_MOTION_DDOT":0}]
